[{"OBJECT_NAME":"STARLINK-33996","OBJECT_ID":"2025-098U","EPOCH":"2026-03-09T23:26:32.793216","MEAN_MOTION":14.98330939,"ECCENTRICITY":0.00029859,"INCLINATION":69.9998,"RA_OF_ASC_NODE":273.8033,"ARG_OF_PERICENTER":267.8144,"MEAN_ANOMALY":92.2673,"EPHEMERIS_TYPE":0,"CLASSIFICATION_TYPE":"U","NORAD_CAT_ID":63944,"ELEMENT_SET_NO":999,"REV_AT_EPOCH":4659,"BSTAR":0.00037867253,"MEAN_MOTION_DOT":4.428e-5,"MEAN_MOTION_DDOT":0},{"OBJECT_NAME":"SICH-1","OBJECT_ID":"1995-046A","EPOCH":"2026-03-09T16:32:37.076064","MEAN_MOTION":14.94365961,"ECCENTRICITY":0.00171667,"INCLINATION":82.5243,"RA_OF_ASC_NODE":136.8069,"ARG_OF_PERICENTER":299.5667,"MEAN_ANOMALY":60.3842,"EPHEMERIS_TYPE":0,"CLASSIFICATION_TYPE":"U","NORAD_CAT_ID":23657,"ELEMENT_SET_NO":999,"REV_AT_EPOCH":65112,"BSTAR":0.0001874143,"MEAN_MOTION_DOT":2.046e-5,"MEAN_MOTION_DDOT":0}]
